OBJECT_NAME,OBJECT_ID,EPOCH,MEAN_MOTION,ECCENTRICITY,INCLINATION,RA_OF_ASC_NODE,ARG_OF_PERICENTER,MEAN_ANOMALY,EPHEMERIS_TYPE,CLASSIFICATION_TYPE,NORAD_CAT_ID,ELEMENT_SET_NO,REV_AT_EPOCH,BSTAR,MEAN_MOTION_DOT,MEAN_MOTION_DDOT
HAWK-6B,2023-011A,2026-07-11T12:14:37.633056,15.23133888,.00036007,40.4968,210.1816,221.4345,138.6192,0,U,55324,999,19155,.12151932E-3,.2734E-4,0
HAWK-6C,2023-011C,2026-07-11T12:13:43.580352,15.23135553,.00041125,40.4958,207.0206,211.7800,148.2762,0,U,55326,999,19156,.12549433E-3,.283E-4,0
HAWK-6A,2023-011D,2026-07-11T12:13:46.619040,15.23134269,.00036281,40.4966,208.6476,209.4630,150.5976,0,U,55327,999,19156,.11852197E-3,.2662E-4,0
HAWK-7A,2023-054P,2026-07-11T17:48:17.881632,15.27609969,.00017799,97.2673,79.4553,350.0874,10.0330,0,U,56191,999,18077,.12526719E-3,.3309E-4,0
HAWK-7B,2023-054R,2026-07-11T17:48:11.615904,15.27606976,.00017472,97.2701,77.7279,22.4503,337.6813,0,U,56193,999,18077,.11418663E-3,.301E-4,0
HAWK-7C,2023-054Y,2026-07-11T16:13:41.954592,15.27610645,.00012807,97.2677,78.4249,7.1495,352.9762,0,U,56200,999,18076,.12426229E-3,.3282E-4,0
